{"type": "FeatureCollection", "features": [{"type": "Feature", "properties": {"norad_id": 32275, "name": "COSMOS 2433 (720)", "group": "glo-ops", "lat": 11.332864670098619, "lon": 137.3114587547338, "alt_km": 19127.492448585166, "timestamp": "2025-12-03T10:52:57.713957+00:00", "meta": {"OBJECT_NAME": "COSMOS 2433 (720)", "OBJECT_ID": "2007-052A", "EPOCH": "2025-12-02T07:06:53.876160", "MEAN_MOTION": 2.13103912, "ECCENTRICITY": 0.00055743, "INCLINATION": 65.6888, "RA_OF_ASC_NODE": 322.5567, "ARG_OF_PERICENTER": 252.1881, "MEAN_ANOMALY": 107.7615, "EPHEMERIS_TYPE": 0, "CLASSIFICATION_TYPE": "U", "NORAD_CAT_ID": 32275, "ELEMENT_SET_NO": 999, "REV_AT_EPOCH": 14086, "BSTAR": 0, "MEAN_MOTION_DOT": -3.2e-07, "MEAN_MOTION_DDOT": 0}, "tle": {"line1": "1 32275U 07052A   25336.29645690 -.00000032  00000+0  00000+0 0  9997", "line2": "2 32275  65.6888 322.5567 0005574 252.1881 107.7615  2.13103912140868"}}, "geometry": {"type": "Point", "coordinates": [137.3114587547338, 11.332864670098619]}}, {"type": "Feature", "properties": {"norad_id": 32276, "name": "COSMOS 2432 (719)", "group": "glo-ops", "lat": 57.584883528362674, "lon": 97.27337495243009, "alt_km": 19150.54674797922, "timestamp": "2025-12-03T10:52:57.713983+00:00", "meta": {"OBJECT_NAME": "COSMOS 2432 (719)", "OBJECT_ID": "2007-052B", "EPOCH": "2025-12-01T01:47:57.960960", "MEAN_MOTION": 2.13103067, "ECCENTRICITY": 0.00112256, "INCLINATION": 65.7054, "RA_OF_ASC_NODE": 322.7218, "ARG_OF_PERICENTER": 311.1678, "MEAN_ANOMALY": 136.2023, "EPHEMERIS_TYPE": 0, "CLASSIFICATION_TYPE": "U", "NORAD_CAT_ID": 32276, "ELEMENT_SET_NO": 999, "REV_AT_EPOCH": 14086, "BSTAR": 0, "MEAN_MOTION_DOT": -2.4e-07, "MEAN_MOTION_DDOT": 0}, "tle": {"line1": "1 32276U 07052B   25335.07497640 -.00000024  00000+0  00000+0 0  9994", "line2": "2 32276  65.7054 322.7218 0011225 311.1678 136.2023  2.13103067140861"}}, "geometry": {"type": "Point", "coordinates": [97.27337495243009, 57.584883528362674]}}, {"type": "Feature", "properties": {"norad_id": 32393, "name": "COSMOS 2434 (721)", "group": "glo-ops", "lat": 49.9320002769201, "lon": -126.59356244499372, "alt_km": 19113.463971866506, "timestamp": "2025-12-03T10:52:57.714000+00:00", "meta": {"OBJECT_NAME": "COSMOS 2434 (721)", "OBJECT_ID": "2007-065A", "EPOCH": "2025-12-01T06:30:38.524608", "MEAN_MOTION": 2.13101181, "ECCENTRICITY": 0.00043375, "INCLINATION": 64.3147, "RA_OF_ASC_NODE": 198.5905, "ARG_OF_PERICENTER": 70.7489, "MEAN_ANOMALY": 113.3938, "EPHEMERIS_TYPE": 0, "CLASSIFICATION_TYPE": "U", "NORAD_CAT_ID": 32393, "ELEMENT_SET_NO": 999, "REV_AT_EPOCH": 13955, "BSTAR": 0, "MEAN_MOTION_DOT": 1.02e-06, "MEAN_MOTION_DDOT": 0}, "tle": {"line1": "1 32393U 07065A   25335.27127922  .00000102  00000+0  00000+0 0  9999", "line2": "2 32393  64.3147 198.5905 0004337  70.7489 113.3938  2.13101181139555"}}, "geometry": {"type": "Point", "coordinates": [-126.59356244499372, 49.9320002769201]}}, {"type": "Feature", "properties": {"norad_id": 32395, "name": "COSMOS 2436 (723)", "group": "glo-ops", "lat": -10.164873673834064, "lon": 23.535689512165717, "alt_km": 19177.06131806195, "timestamp": "2025-12-03T10:52:57.714014+00:00", "meta": {"OBJECT_NAME": "COSMOS 2436 (723)", "OBJECT_ID": "2007-065C", "EPOCH": "2025-12-01T01:03:25.836192", "MEAN_MOTION": 2.13099978, "ECCENTRICITY": 0.00177119, "INCLINATION": 64.3233, "RA_OF_ASC_NODE": 198.6683, "ARG_OF_PERICENTER": 8.6583, "MEAN_ANOMALY": 134.2889, "EPHEMERIS_TYPE": 0, "CLASSIFICATION_TYPE": "U", "NORAD_CAT_ID": 32395, "ELEMENT_SET_NO": 999, "REV_AT_EPOCH": 13950, "BSTAR": 0, "MEAN_MOTION_DOT": 1e-06, "MEAN_MOTION_DDOT": 0}, "tle": {"line1": "1 32395U 07065C   25335.04404903  .00000100  00000+0  00000+0 0  9991", "line2": "2 32395  64.3233 198.6683 0017711   8.6583 134.2889  2.13099978139504"}}, "geometry": {"type": "Point", "coordinates": [23.535689512165717, -10.164873673834064]}}, {"type": "Feature", "properties": {"norad_id": 36111, "name": "COSMOS 2456 (730)", "group": "glo-ops", "lat": -31.532612749808592, "lon": -85.65224792188347, "alt_km": 19133.18704145438, "timestamp": "2025-12-03T10:52:57.714027+00:00", "meta": {"OBJECT_NAME": "COSMOS 2456 (730)", "OBJECT_ID": "2009-070A", "EPOCH": "2025-12-01T00:19:15.904128", "MEAN_MOTION": 2.13103433, "ECCENTRICITY": 0.00027486, "INCLINATION": 64.8936, "RA_OF_ASC_NODE": 77.7389, "ARG_OF_PERICENTER": 298.5027, "MEAN_ANOMALY": 204.7984, "EPHEMERIS_TYPE": 0, "CLASSIFICATION_TYPE": "U", "NORAD_CAT_ID": 36111, "ELEMENT_SET_NO": 999, "REV_AT_EPOCH": 12420, "BSTAR": 0, "MEAN_MOTION_DOT": -1.4e-07, "MEAN_MOTION_DDOT": 0}, "tle": {"line1": "1 36111U 09070A   25335.01337852 -.00000014  00000+0  00000+0 0  9999", "line2": "2 36111  64.8936  77.7389 0002748 298.5027 204.7984  2.13103433124208"}}, "geometry": {"type": "Point", "coordinates": [-85.65224792188347, -31.532612749808592]}}, {"type": "Feature", "properties": {"norad_id": 36112, "name": "COSMOS 2457 (733)", "group": "glo-ops", "lat": -14.031650873630133, "lon": 70.78098176002331, "alt_km": 19144.713492395684, "timestamp": "2025-12-03T10:52:57.714039+00:00", "meta": {"OBJECT_NAME": "COSMOS 2457 (733)", "OBJECT_ID": "2009-070B", "EPOCH": "2025-12-03T00:06:14.592384", "MEAN_MOTION": 2.13100787, "ECCENTRICITY": 0.000491, "INCLINATION": 64.8799, "RA_OF_ASC_NODE": 77.5186, "ARG_OF_PERICENTER": 156.2376, "MEAN_ANOMALY": 203.7006, "EPHEMERIS_TYPE": 0, "CLASSIFICATION_TYPE": "U", "NORAD_CAT_ID": 36112, "ELEMENT_SET_NO": 999, "REV_AT_EPOCH": 12424, "BSTAR": 0, "MEAN_MOTION_DOT": -2.5e-07, "MEAN_MOTION_DDOT": 0}, "tle": {"line1": "1 36112U 09070B   25337.00433556 -.00000025  00000+0  00000+0 0  9991", "line2": "2 36112  64.8799  77.5186 0004910 156.2376 203.7006  2.13100787124246"}}, "geometry": {"type": "Point", "coordinates": [70.78098176002331, -14.031650873630133]}}, {"type": "Feature", "properties": {"norad_id": 36402, "name": "COSMOS 2460 (732)", "group": "glo-ops", "lat": -14.6720185083385, "lon": -45.76803779968846, "alt_km": 19129.98649170493, "timestamp": "2025-12-03T10:52:57.714052+00:00", "meta": {"OBJECT_NAME": "COSMOS 2460 (732)", "OBJECT_ID": "2010-007C", "EPOCH": "2025-12-01T05:49:09.827040", "MEAN_MOTION": 2.13106053, "ECCENTRICITY": 0.00028009, "INCLINATION": 65.536, "RA_OF_ASC_NODE": 321.162, "ARG_OF_PERICENTER": 269.9918, "MEAN_ANOMALY": 177.6167, "EPHEMERIS_TYPE": 0, "CLASSIFICATION_TYPE": "U", "NORAD_CAT_ID": 36402, "ELEMENT_SET_NO": 999, "REV_AT_EPOCH": 12251, "BSTAR": 0, "MEAN_MOTION_DOT": -2.6e-07, "MEAN_MOTION_DDOT": 0}, "tle": {"line1": "1 36402U 10007C   25335.24247485 -.00000026  00000+0  00000+0 0  9994", "line2": "2 36402  65.5360 321.1620 0002800 269.9918 177.6167  2.13106053122518"}}, "geometry": {"type": "Point", "coordinates": [-45.76803779968846, -14.6720185083385]}}, {"type": "Feature", "properties": {"norad_id": 37867, "name": "COSMOS 2476 (744)", "group": "glo-ops", "lat": 49.22295577213093, "lon": -132.9466207934277, "alt_km": 19145.071719406857, "timestamp": "2025-12-03T10:52:57.714063+00:00", "meta": {"OBJECT_NAME": "COSMOS 2476 (744)", "OBJECT_ID": "2011-064A", "EPOCH": "2025-12-02T19:57:36.313920", "MEAN_MOTION": 2.13101261, "ECCENTRICITY": 0.002396, "INCLINATION": 65.1573, "RA_OF_ASC_NODE": 79.5068, "ARG_OF_PERICENTER": 233.4935, "MEAN_ANOMALY": 133.1658, "EPHEMERIS_TYPE": 0, "CLASSIFICATION_TYPE": "U", "NORAD_CAT_ID": 37867, "ELEMENT_SET_NO": 999, "REV_AT_EPOCH": 10958, "BSTAR": 0, "MEAN_MOTION_DOT": -2.2e-07, "MEAN_MOTION_DDOT": 0}, "tle": {"line1": "1 37867U 11064A   25336.83167030 -.00000022  00000+0  00000+0 0  9993", "line2": "2 37867  65.1573  79.5068 0023960 233.4935 133.1658  2.13101261109581"}}, "geometry": {"type": "Point", "coordinates": [-132.9466207934277, 49.22295577213093]}}, {"type": "Feature", "properties": {"norad_id": 37868, "name": "COSMOS 2477 (745)", "group": "glo-ops", "lat": -48.194479762778656, "lon": 48.42576028723811, "alt_km": 19118.047283487842, "timestamp": "2025-12-03T10:52:57.714075+00:00", "meta": {"OBJECT_NAME": "COSMOS 2477 (745)", "OBJECT_ID": "2011-064B", "EPOCH": "2025-12-01T05:34:43.743072", "MEAN_MOTION": 2.1310269, "ECCENTRICITY": 0.00209845, "INCLINATION": 65.1625, "RA_OF_ASC_NODE": 79.6383, "ARG_OF_PERICENTER": 233.8301, "MEAN_ANOMALY": 166.8442, "EPHEMERIS_TYPE": 0, "CLASSIFICATION_TYPE": "U", "NORAD_CAT_ID": 37868, "ELEMENT_SET_NO": 999, "REV_AT_EPOCH": 10954, "BSTAR": 0, "MEAN_MOTION_DOT": -1.2e-07, "MEAN_MOTION_DDOT": 0}, "tle": {"line1": "1 37868U 11064B   25335.23245073 -.00000012  00000+0  00000+0 0  9990", "line2": "2 37868  65.1625  79.6383 0020984 233.8301 166.8442  2.13102690109542"}}, "geometry": {"type": "Point", "coordinates": [48.42576028723811, -48.194479762778656]}}, {"type": "Feature", "properties": {"norad_id": 37869, "name": "COSMOS 2475 (743)", "group": "glo-ops", "lat": -63.58877847874718, "lon": -31.860271609065457, "alt_km": 19071.788847252592, "timestamp": "2025-12-03T10:52:57.714087+00:00", "meta": {"OBJECT_NAME": "COSMOS 2475 (743)", "OBJECT_ID": "2011-064C", "EPOCH": "2025-12-01T05:41:50.555616", "MEAN_MOTION": 2.13101369, "ECCENTRICITY": 0.00260135, "INCLINATION": 65.1695, "RA_OF_ASC_NODE": 79.658, "ARG_OF_PERICENTER": 248.1873, "MEAN_ANOMALY": 112.2788, "EPHEMERIS_TYPE": 0, "CLASSIFICATION_TYPE": "U", "NORAD_CAT_ID": 37869, "ELEMENT_SET_NO": 999, "REV_AT_EPOCH": 10955, "BSTAR": 0, "MEAN_MOTION_DOT": -1.2e-07, "MEAN_MOTION_DDOT": 0}, "tle": {"line1": "1 37869U 11064C   25335.23739069 -.00000012  00000+0  00000+0 0  9994", "line2": "2 37869  65.1695  79.6580 0026013 248.1873 112.2788  2.13101369109552"}}, "geometry": {"type": "Point", "coordinates": [-31.860271609065457, -63.58877847874718]}}]}